{
    "links": {
        "self": "http://www.neowsapp.com/rest/v1/neo/3843848?api_key=iIulBulltgU6a56xZRHN4H3l9WmuAYTsLGpBGhQ2"
    },
    "id": "3843848",
    "neo_reference_id": "3843848",
    "name": "(2019 RR3)",
    "designation": "2019 RR3",
    "nasa_jpl_url": "http://ssd.jpl.nasa.gov/sbdb.cgi?sstr=3843848",
    "absolute_magnitude_h": 21.1,
    "estimated_diameter": {
        "kilometers": {
            "estimated_diameter_min": 0.160160338,
            "estimated_diameter_max": 0.358129403
        },
        "meters": {
            "estimated_diameter_min": 160.1603379786,
            "estimated_diameter_max": 358.1294030194
        },
        "miles": {
            "estimated_diameter_min": 0.0995189894,
            "estimated_diameter_max": 0.2225312253
        },
        "feet": {
            "estimated_diameter_min": 525.4604432536,
            "estimated_diameter_max": 1174.9652706022
        }
    },
    "is_potentially_hazardous_asteroid": false,
    "close_approach_data": [
        {
            "close_approach_date": "2035-09-03",
            "close_approach_date_full": "2035-Sep-03 08:20",
            "epoch_date_close_approach": 2072420400000,
            "relative_velocity": {
                "kilometers_per_second": "21.1859656284",
                "kilometers_per_hour": "76269.4762621363",
                "miles_per_hour": "47390.8865141035"
            },
            "miss_distance": {
                "astronomical": "0.3679199794",
                "lunar": "143.1208719866",
                "kilometers": "55040045.248683878",
                "miles": "34200298.2286303964"
            },
            "orbiting_body": "Earth"
        }
    ],
    "orbital_data": {
        "orbit_id": "2",
        "orbit_determination_date": "2019-10-07 05:57:44",
        "first_observation_date": "2019-09-06",
        "last_observation_date": "2019-10-06",
        "data_arc_in_days": 30,
        "observations_used": 24,
        "orbit_uncertainty": "6",
        "minimum_orbit_intersection": ".367149",
        "jupiter_tisserand_invariant": "3.272",
        "epoch_osculation": "2459000.5",
        "eccentricity": ".5041471183693431",
        "semi_major_axis": "2.177734740943686",
        "inclination": "37.84814692133445",
        "ascending_node_longitude": "354.9081760396554",
        "orbital_period": "1173.83186822989",
        "perihelion_distance": "1.079836046724119",
        "perihelion_argument": "281.2322455116919",
        "aphelion_distance": "3.275633435163253",
        "perihelion_time": "2458640.805025265852",
        "mean_anomaly": "110.3140870587891",
        "mean_motion": ".3066878739140652",
        "equinox": "J2000",
        "orbit_class": {
            "orbit_class_type": "AMO",
            "orbit_class_description": "Near-Earth asteroid orbits similar to that of 1221 Amor",
            "orbit_class_range": "1.017 AU < q (perihelion) < 1.3 AU"
        }
    },
    "is_sentry_object": false
}